<?xml version="1.0" encoding="utf-8" ?>
<kml xmlns="http://www.opengis.net/kml/2.2">
<Document id="root_doc">
<Schema name="nmero" id="nmero">
	<SimpleField name="id" type="float"></SimpleField>
	<SimpleField name="left" type="float"></SimpleField>
	<SimpleField name="top" type="float"></SimpleField>
	<SimpleField name="right" type="float"></SimpleField>
	<SimpleField name="bottom" type="float"></SimpleField>
	<SimpleField name="row_index" type="float"></SimpleField>
	<SimpleField name="col_index" type="float"></SimpleField>
	<SimpleField name="NUMPOINTS" type="float"></SimpleField>
</Schema>
<Folder><name>nmero</name>
  <Placemark>
	<Style><LineStyle><color>ff0000ff</color></LineStyle><PolyStyle><fill>0</fill></PolyStyle></Style>
	<ExtendedData><SchemaData schemaUrl="#nmero">
		<SimpleData name="id">769199</SimpleData>
		<SimpleData name="left">-76.453228797983641</SimpleData>
		<SimpleData name="top">3.703087612916932</SimpleData>
		<SimpleData name="right">-76.451154955816733</SimpleData>
		<SimpleData name="bottom">3.701291612916932</SimpleData>
		<SimpleData name="row_index">748</SimpleData>
		<SimpleData name="col_index">705</SimpleData>
		<SimpleData name="NUMPOINTS">0.000000000000000</SimpleData>
	</SchemaData></ExtendedData>
      <MultiGeometry><Polygon><outerBoundaryIs><LinearRing><coordinates>-76.4532287979837,3.70218961291693 -76.4527103374419,3.70308761291693 -76.4516734163585,3.70308761291693 -76.4511549558167,3.70218961291693 -76.4516734163585,3.70129161291693 -76.4527103374419,3.70129161291693 -76.4532287979837,3.70218961291693</coordinates></LinearRing></outerBoundaryIs></Polygon></MultiGeometry>
  </Placemark>
  <Placemark>
	<Style><LineStyle><color>ff0000ff</color></LineStyle><PolyStyle><fill>0</fill></PolyStyle></Style>
	<ExtendedData><SchemaData schemaUrl="#nmero">
		<SimpleData name="id">776828</SimpleData>
		<SimpleData name="left">-76.442341126607275</SimpleData>
		<SimpleData name="top">3.705781612916932</SimpleData>
		<SimpleData name="right">-76.440267284440353</SimpleData>
		<SimpleData name="bottom">3.703985612916932</SimpleData>
		<SimpleData name="row_index">747</SimpleData>
		<SimpleData name="col_index">712</SimpleData>
		<SimpleData name="NUMPOINTS">0.000000000000000</SimpleData>
	</SchemaData></ExtendedData>
      <MultiGeometry><Polygon><outerBoundaryIs><LinearRing><coordinates>-76.4423411266073,3.70488361291693 -76.4418226660655,3.70578161291693 -76.4407857449821,3.70578161291693 -76.4402672844404,3.70488361291693 -76.4407857449821,3.70398561291693 -76.4418226660655,3.70398561291693 -76.4423411266073,3.70488361291693</coordinates></LinearRing></outerBoundaryIs></Polygon></MultiGeometry>
  </Placemark>
  <Placemark>
	<Style><LineStyle><color>ff0000ff</color></LineStyle><PolyStyle><fill>0</fill></PolyStyle></Style>
	<ExtendedData><SchemaData schemaUrl="#nmero">
		<SimpleData name="id">772473</SimpleData>
		<SimpleData name="left">-76.448562653108041</SimpleData>
		<SimpleData name="top">3.696801612916932</SimpleData>
		<SimpleData name="right">-76.446488810941133</SimpleData>
		<SimpleData name="bottom">3.695005612916932</SimpleData>
		<SimpleData name="row_index">752</SimpleData>
		<SimpleData name="col_index">708</SimpleData>
		<SimpleData name="NUMPOINTS">0.000000000000000</SimpleData>
	</SchemaData></ExtendedData>
      <MultiGeometry><Polygon><outerBoundaryIs><LinearRing><coordinates>-76.4485626531081,3.69590361291693 -76.4480441925663,3.69680161291693 -76.4470072714829,3.69680161291693 -76.4464888109411,3.69590361291693 -76.4470072714829,3.69500561291693 -76.4480441925663,3.69500561291693 -76.4485626531081,3.69590361291693</coordinates></LinearRing></outerBoundaryIs></Polygon></MultiGeometry>
  </Placemark>
  <Placemark>
	<Style><LineStyle><color>ff0000ff</color></LineStyle><PolyStyle><fill>0</fill></PolyStyle></Style>
	<ExtendedData><SchemaData schemaUrl="#nmero">
		<SimpleData name="id">780104</SimpleData>
		<SimpleData name="left">-76.437674981731689</SimpleData>
		<SimpleData name="top">3.694107612916932</SimpleData>
		<SimpleData name="right">-76.435601139564767</SimpleData>
		<SimpleData name="bottom">3.692311612916932</SimpleData>
		<SimpleData name="row_index">753</SimpleData>
		<SimpleData name="col_index">715</SimpleData>
		<SimpleData name="NUMPOINTS">0.000000000000000</SimpleData>
	</SchemaData></ExtendedData>
      <MultiGeometry><Polygon><outerBoundaryIs><LinearRing><coordinates>-76.4376749817317,3.69320961291693 -76.43715652119,3.69410761291693 -76.4361196001065,3.69410761291693 -76.4356011395648,3.69320961291693 -76.4361196001065,3.69231161291693 -76.43715652119,3.69231161291693 -76.4376749817317,3.69320961291693</coordinates></LinearRing></outerBoundaryIs></Polygon></MultiGeometry>
  </Placemark>
  <Placemark>
	<Style><LineStyle><color>ff0000ff</color></LineStyle><PolyStyle><fill>0</fill></PolyStyle></Style>
	<ExtendedData><SchemaData schemaUrl="#nmero">
		<SimpleData name="id">776830</SimpleData>
		<SimpleData name="left">-76.442341126607275</SimpleData>
		<SimpleData name="top">3.702189612916932</SimpleData>
		<SimpleData name="right">-76.440267284440353</SimpleData>
		<SimpleData name="bottom">3.700393612916932</SimpleData>
		<SimpleData name="row_index">749</SimpleData>
		<SimpleData name="col_index">712</SimpleData>
		<SimpleData name="NUMPOINTS">0.000000000000000</SimpleData>
	</SchemaData></ExtendedData>
      <MultiGeometry><Polygon><outerBoundaryIs><LinearRing><coordinates>-76.4423411266073,3.70129161291693 -76.4418226660655,3.70218961291693 -76.4407857449821,3.70218961291693 -76.4402672844404,3.70129161291693 -76.4407857449821,3.70039361291693 -76.4418226660655,3.70039361291693 -76.4423411266073,3.70129161291693</coordinates></LinearRing></outerBoundaryIs></Polygon></MultiGeometry>
  </Placemark>
  <Placemark>
	<Style><LineStyle><color>ff0000ff</color></LineStyle><PolyStyle><fill>0</fill></PolyStyle></Style>
	<ExtendedData><SchemaData schemaUrl="#nmero">
		<SimpleData name="id">776829</SimpleData>
		<SimpleData name="left">-76.442341126607275</SimpleData>
		<SimpleData name="top">3.703985612916932</SimpleData>
		<SimpleData name="right">-76.440267284440353</SimpleData>
		<SimpleData name="bottom">3.702189612916932</SimpleData>
		<SimpleData name="row_index">748</SimpleData>
		<SimpleData name="col_index">712</SimpleData>
		<SimpleData name="NUMPOINTS">0.000000000000000</SimpleData>
	</SchemaData></ExtendedData>
      <MultiGeometry><Polygon><outerBoundaryIs><LinearRing><coordinates>-76.4423411266073,3.70308761291693 -76.4418226660655,3.70398561291693 -76.4407857449821,3.70398561291693 -76.4402672844404,3.70308761291693 -76.4407857449821,3.70218961291693 -76.4418226660655,3.70218961291693 -76.4423411266073,3.70308761291693</coordinates></LinearRing></outerBoundaryIs></Polygon></MultiGeometry>
  </Placemark>
  <Placemark>
	<Style><LineStyle><color>ff0000ff</color></LineStyle><PolyStyle><fill>0</fill></PolyStyle></Style>
	<ExtendedData><SchemaData schemaUrl="#nmero">
		<SimpleData name="id">777922</SimpleData>
		<SimpleData name="left">-76.440785744982080</SimpleData>
		<SimpleData name="top">3.697699612916932</SimpleData>
		<SimpleData name="right">-76.438711902815157</SimpleData>
		<SimpleData name="bottom">3.695903612916932</SimpleData>
		<SimpleData name="row_index">751</SimpleData>
		<SimpleData name="col_index">713</SimpleData>
		<SimpleData name="NUMPOINTS">3.000000000000000</SimpleData>
	</SchemaData></ExtendedData>
      <MultiGeometry><Polygon><outerBoundaryIs><LinearRing><coordinates>-76.4407857449821,3.69680161291693 -76.4402672844404,3.69769961291693 -76.4392303633569,3.69769961291693 -76.4387119028152,3.69680161291693 -76.4392303633569,3.69590361291693 -76.4402672844404,3.69590361291693 -76.4407857449821,3.69680161291693</coordinates></LinearRing></outerBoundaryIs></Polygon></MultiGeometry>
  </Placemark>
  <Placemark>
	<Style><LineStyle><color>ff0000ff</color></LineStyle><PolyStyle><fill>0</fill></PolyStyle></Style>
	<ExtendedData><SchemaData schemaUrl="#nmero">
		<SimpleData name="id">777921</SimpleData>
		<SimpleData name="left">-76.440785744982080</SimpleData>
		<SimpleData name="top">3.699495612916932</SimpleData>
		<SimpleData name="right">-76.438711902815157</SimpleData>
		<SimpleData name="bottom">3.697699612916932</SimpleData>
		<SimpleData name="row_index">750</SimpleData>
		<SimpleData name="col_index">713</SimpleData>
		<SimpleData name="NUMPOINTS">4.000000000000000</SimpleData>
	</SchemaData></ExtendedData>
      <MultiGeometry><Polygon><outerBoundaryIs><LinearRing><coordinates>-76.4407857449821,3.69859761291693 -76.4402672844404,3.69949561291693 -76.4392303633569,3.69949561291693 -76.4387119028152,3.69859761291693 -76.4392303633569,3.69769961291693 -76.4402672844404,3.69769961291693 -76.4407857449821,3.69859761291693</coordinates></LinearRing></outerBoundaryIs></Polygon></MultiGeometry>
  </Placemark>
  <Placemark>
	<Style><LineStyle><color>ff0000ff</color></LineStyle><PolyStyle><fill>0</fill></PolyStyle></Style>
	<ExtendedData><SchemaData schemaUrl="#nmero">
		<SimpleData name="id">782280</SimpleData>
		<SimpleData name="left">-76.434564218481285</SimpleData>
		<SimpleData name="top">3.701291612916932</SimpleData>
		<SimpleData name="right">-76.432490376314362</SimpleData>
		<SimpleData name="bottom">3.699495612916932</SimpleData>
		<SimpleData name="row_index">749</SimpleData>
		<SimpleData name="col_index">717</SimpleData>
		<SimpleData name="NUMPOINTS">0.000000000000000</SimpleData>
	</SchemaData></ExtendedData>
      <MultiGeometry><Polygon><outerBoundaryIs><LinearRing><coordinates>-76.4345642184813,3.70039361291693 -76.4340457579396,3.70129161291693 -76.4330088368561,3.70129161291693 -76.4324903763144,3.70039361291693 -76.4330088368561,3.69949561291693 -76.4340457579396,3.69949561291693 -76.4345642184813,3.70039361291693</coordinates></LinearRing></outerBoundaryIs></Polygon></MultiGeometry>
  </Placemark>
  <Placemark>
	<Style><LineStyle><color>ff0000ff</color></LineStyle><PolyStyle><fill>0</fill></PolyStyle></Style>
	<ExtendedData><SchemaData schemaUrl="#nmero">
		<SimpleData name="id">777924</SimpleData>
		<SimpleData name="left">-76.440785744982080</SimpleData>
		<SimpleData name="top">3.694107612916932</SimpleData>
		<SimpleData name="right">-76.438711902815157</SimpleData>
		<SimpleData name="bottom">3.692311612916932</SimpleData>
		<SimpleData name="row_index">753</SimpleData>
		<SimpleData name="col_index">713</SimpleData>
		<SimpleData name="NUMPOINTS">3.000000000000000</SimpleData>
	</SchemaData></ExtendedData>
      <MultiGeometry><Polygon><outerBoundaryIs><LinearRing><coordinates>-76.4407857449821,3.69320961291693 -76.4402672844404,3.69410761291693 -76.4392303633569,3.69410761291693 -76.4387119028152,3.69320961291693 -76.4392303633569,3.69231161291693 -76.4402672844404,3.69231161291693 -76.4407857449821,3.69320961291693</coordinates></LinearRing></outerBoundaryIs></Polygon></MultiGeometry>
  </Placemark>
  <Placemark>
	<Style><LineStyle><color>ff0000ff</color></LineStyle><PolyStyle><fill>0</fill></PolyStyle></Style>
	<ExtendedData><SchemaData schemaUrl="#nmero">
		<SimpleData name="id">770289</SimpleData>
		<SimpleData name="left">-76.451673416358460</SimpleData>
		<SimpleData name="top">3.703985612916932</SimpleData>
		<SimpleData name="right">-76.449599574191538</SimpleData>
		<SimpleData name="bottom">3.702189612916932</SimpleData>
		<SimpleData name="row_index">748</SimpleData>
		<SimpleData name="col_index">706</SimpleData>
		<SimpleData name="NUMPOINTS">0.000000000000000</SimpleData>
	</SchemaData></ExtendedData>
      <MultiGeometry><Polygon><outerBoundaryIs><LinearRing><coordinates>-76.4516734163585,3.70308761291693 -76.4511549558167,3.70398561291693 -76.4501180347333,3.70398561291693 -76.4495995741915,3.70308761291693 -76.4501180347333,3.70218961291693 -76.4511549558167,3.70218961291693 -76.4516734163585,3.70308761291693</coordinates></LinearRing></outerBoundaryIs></Polygon></MultiGeometry>
  </Placemark>
  <Placemark>
	<Style><LineStyle><color>ff0000ff</color></LineStyle><PolyStyle><fill>0</fill></PolyStyle></Style>
	<ExtendedData><SchemaData schemaUrl="#nmero">
		<SimpleData name="id">777923</SimpleData>
		<SimpleData name="left">-76.440785744982080</SimpleData>
		<SimpleData name="top">3.695903612916932</SimpleData>
		<SimpleData name="right">-76.438711902815157</SimpleData>
		<SimpleData name="bottom">3.694107612916932</SimpleData>
		<SimpleData name="row_index">752</SimpleData>
		<SimpleData name="col_index">713</SimpleData>
		<SimpleData name="NUMPOINTS">0.000000000000000</SimpleData>
	</SchemaData></ExtendedData>
      <MultiGeometry><Polygon><outerBoundaryIs><LinearRing><coordinates>-76.4407857449821,3.69500561291693 -76.4402672844404,3.69590361291693 -76.4392303633569,3.69590361291693 -76.4387119028152,3.69500561291693 -76.4392303633569,3.69410761291693 -76.4402672844404,3.69410761291693 -76.4407857449821,3.69500561291693</coordinates></LinearRing></outerBoundaryIs></Polygon></MultiGeometry>
  </Placemark>
  <Placemark>
	<Style><LineStyle><color>ff0000ff</color></LineStyle><PolyStyle><fill>0</fill></PolyStyle></Style>
	<ExtendedData><SchemaData schemaUrl="#nmero">
		<SimpleData name="id">780101</SimpleData>
		<SimpleData name="left">-76.437674981731689</SimpleData>
		<SimpleData name="top">3.699495612916932</SimpleData>
		<SimpleData name="right">-76.435601139564767</SimpleData>
		<SimpleData name="bottom">3.697699612916932</SimpleData>
		<SimpleData name="row_index">750</SimpleData>
		<SimpleData name="col_index">715</SimpleData>
		<SimpleData name="NUMPOINTS">0.000000000000000</SimpleData>
	</SchemaData></ExtendedData>
      <MultiGeometry><Polygon><outerBoundaryIs><LinearRing><coordinates>-76.4376749817317,3.69859761291693 -76.43715652119,3.69949561291693 -76.4361196001065,3.69949561291693 -76.4356011395648,3.69859761291693 -76.4361196001065,3.69769961291693 -76.43715652119,3.69769961291693 -76.4376749817317,3.69859761291693</coordinates></LinearRing></outerBoundaryIs></Polygon></MultiGeometry>
  </Placemark>
  <Placemark>
	<Style><LineStyle><color>ff0000ff</color></LineStyle><PolyStyle><fill>0</fill></PolyStyle></Style>
	<ExtendedData><SchemaData schemaUrl="#nmero">
		<SimpleData name="id">777925</SimpleData>
		<SimpleData name="left">-76.440785744982080</SimpleData>
		<SimpleData name="top">3.692311612916932</SimpleData>
		<SimpleData name="right">-76.438711902815157</SimpleData>
		<SimpleData name="bottom">3.690515612916932</SimpleData>
		<SimpleData name="row_index">754</SimpleData>
		<SimpleData name="col_index">713</SimpleData>
		<SimpleData name="NUMPOINTS">0.000000000000000</SimpleData>
	</SchemaData></ExtendedData>
      <MultiGeometry><Polygon><outerBoundaryIs><LinearRing><coordinates>-76.4407857449821,3.69141361291693 -76.4402672844404,3.69231161291693 -76.4392303633569,3.69231161291693 -76.4387119028152,3.69141361291693 -76.4392303633569,3.69051561291693 -76.4402672844404,3.69051561291693 -76.4407857449821,3.69141361291693</coordinates></LinearRing></outerBoundaryIs></Polygon></MultiGeometry>
  </Placemark>
  <Placemark>
	<Style><LineStyle><color>ff0000ff</color></LineStyle><PolyStyle><fill>0</fill></PolyStyle></Style>
	<ExtendedData><SchemaData schemaUrl="#nmero">
		<SimpleData name="id">780100</SimpleData>
		<SimpleData name="left">-76.437674981731689</SimpleData>
		<SimpleData name="top">3.701291612916932</SimpleData>
		<SimpleData name="right">-76.435601139564767</SimpleData>
		<SimpleData name="bottom">3.699495612916932</SimpleData>
		<SimpleData name="row_index">749</SimpleData>
		<SimpleData name="col_index">715</SimpleData>
		<SimpleData name="NUMPOINTS">0.000000000000000</SimpleData>
	</SchemaData></ExtendedData>
      <MultiGeometry><Polygon><outerBoundaryIs><LinearRing><coordinates>-76.4376749817317,3.70039361291693 -76.43715652119,3.70129161291693 -76.4361196001065,3.70129161291693 -76.4356011395648,3.70039361291693 -76.4361196001065,3.69949561291693 -76.43715652119,3.69949561291693 -76.4376749817317,3.70039361291693</coordinates></LinearRing></outerBoundaryIs></Polygon></MultiGeometry>
  </Placemark>
  <Placemark>
	<Style><LineStyle><color>ff0000ff</color></LineStyle><PolyStyle><fill>0</fill></PolyStyle></Style>
	<ExtendedData><SchemaData schemaUrl="#nmero">
		<SimpleData name="id">775739</SimpleData>
		<SimpleData name="left">-76.443896508232470</SimpleData>
		<SimpleData name="top">3.703087612916932</SimpleData>
		<SimpleData name="right">-76.441822666065548</SimpleData>
		<SimpleData name="bottom">3.701291612916932</SimpleData>
		<SimpleData name="row_index">748</SimpleData>
		<SimpleData name="col_index">711</SimpleData>
		<SimpleData name="NUMPOINTS">0.000000000000000</SimpleData>
	</SchemaData></ExtendedData>
      <MultiGeometry><Polygon><outerBoundaryIs><LinearRing><coordinates>-76.4438965082325,3.70218961291693 -76.4433780476907,3.70308761291693 -76.4423411266073,3.70308761291693 -76.4418226660655,3.70218961291693 -76.4423411266073,3.70129161291693 -76.4433780476907,3.70129161291693 -76.4438965082325,3.70218961291693</coordinates></LinearRing></outerBoundaryIs></Polygon></MultiGeometry>
  </Placemark>
  <Placemark>
	<Style><LineStyle><color>ff0000ff</color></LineStyle><PolyStyle><fill>0</fill></PolyStyle></Style>
	<ExtendedData><SchemaData schemaUrl="#nmero">
		<SimpleData name="id">780103</SimpleData>
		<SimpleData name="left">-76.437674981731689</SimpleData>
		<SimpleData name="top">3.695903612916932</SimpleData>
		<SimpleData name="right">-76.435601139564767</SimpleData>
		<SimpleData name="bottom">3.694107612916932</SimpleData>
		<SimpleData name="row_index">752</SimpleData>
		<SimpleData name="col_index">715</SimpleData>
		<SimpleData name="NUMPOINTS">0.000000000000000</SimpleData>
	</SchemaData></ExtendedData>
      <MultiGeometry><Polygon><outerBoundaryIs><LinearRing><coordinates>-76.4376749817317,3.69500561291693 -76.43715652119,3.69590361291693 -76.4361196001065,3.69590361291693 -76.4356011395648,3.69500561291693 -76.4361196001065,3.69410761291693 -76.43715652119,3.69410761291693 -76.4376749817317,3.69500561291693</coordinates></LinearRing></outerBoundaryIs></Polygon></MultiGeometry>
  </Placemark>
  <Placemark>
	<Style><LineStyle><color>ff0000ff</color></LineStyle><PolyStyle><fill>0</fill></PolyStyle></Style>
	<ExtendedData><SchemaData schemaUrl="#nmero">
		<SimpleData name="id">780102</SimpleData>
		<SimpleData name="left">-76.437674981731689</SimpleData>
		<SimpleData name="top">3.697699612916932</SimpleData>
		<SimpleData name="right">-76.435601139564767</SimpleData>
		<SimpleData name="bottom">3.695903612916932</SimpleData>
		<SimpleData name="row_index">751</SimpleData>
		<SimpleData name="col_index">715</SimpleData>
		<SimpleData name="NUMPOINTS">0.000000000000000</SimpleData>
	</SchemaData></ExtendedData>
      <MultiGeometry><Polygon><outerBoundaryIs><LinearRing><coordinates>-76.4376749817317,3.69680161291693 -76.43715652119,3.69769961291693 -76.4361196001065,3.69769961291693 -76.4356011395648,3.69680161291693 -76.4361196001065,3.69590361291693 -76.43715652119,3.69590361291693 -76.4376749817317,3.69680161291693</coordinates></LinearRing></outerBoundaryIs></Polygon></MultiGeometry>
  </Placemark>
  <Placemark>
	<Style><LineStyle><color>ff0000ff</color></LineStyle><PolyStyle><fill>0</fill></PolyStyle></Style>
	<ExtendedData><SchemaData schemaUrl="#nmero">
		<SimpleData name="id">775741</SimpleData>
		<SimpleData name="left">-76.443896508232470</SimpleData>
		<SimpleData name="top">3.699495612916932</SimpleData>
		<SimpleData name="right">-76.441822666065548</SimpleData>
		<SimpleData name="bottom">3.697699612916932</SimpleData>
		<SimpleData name="row_index">750</SimpleData>
		<SimpleData name="col_index">711</SimpleData>
		<SimpleData name="NUMPOINTS">4.000000000000000</SimpleData>
	</SchemaData></ExtendedData>
      <MultiGeometry><Polygon><outerBoundaryIs><LinearRing><coordinates>-76.4438965082325,3.69859761291693 -76.4433780476907,3.69949561291693 -76.4423411266073,3.69949561291693 -76.4418226660655,3.69859761291693 -76.4423411266073,3.69769961291693 -76.4433780476907,3.69769961291693 -76.4438965082325,3.69859761291693</coordinates></LinearRing></outerBoundaryIs></Polygon></MultiGeometry>
  </Placemark>
  <Placemark>
	<Style><LineStyle><color>ff0000ff</color></LineStyle><PolyStyle><fill>0</fill></PolyStyle></Style>
	<ExtendedData><SchemaData schemaUrl="#nmero">
		<SimpleData name="id">775740</SimpleData>
		<SimpleData name="left">-76.443896508232470</SimpleData>
		<SimpleData name="top">3.701291612916932</SimpleData>
		<SimpleData name="right">-76.441822666065548</SimpleData>
		<SimpleData name="bottom">3.699495612916932</SimpleData>
		<SimpleData name="row_index">749</SimpleData>
		<SimpleData name="col_index">711</SimpleData>
		<SimpleData name="NUMPOINTS">9.000000000000000</SimpleData>
	</SchemaData></ExtendedData>
      <MultiGeometry><Polygon><outerBoundaryIs><LinearRing><coordinates>-76.4438965082325,3.70039361291693 -76.4433780476907,3.70129161291693 -76.4423411266073,3.70129161291693 -76.4418226660655,3.70039361291693 -76.4423411266073,3.69949561291693 -76.4433780476907,3.69949561291693 -76.4438965082325,3.70039361291693</coordinates></LinearRing></outerBoundaryIs></Polygon></MultiGeometry>
  </Placemark>
  <Placemark>
	<Style><LineStyle><color>ff0000ff</color></LineStyle><PolyStyle><fill>0</fill></PolyStyle></Style>
	<ExtendedData><SchemaData schemaUrl="#nmero">
		<SimpleData name="id">776832</SimpleData>
		<SimpleData name="left">-76.442341126607275</SimpleData>
		<SimpleData name="top">3.698597612916932</SimpleData>
		<SimpleData name="right">-76.440267284440353</SimpleData>
		<SimpleData name="bottom">3.696801612916932</SimpleData>
		<SimpleData name="row_index">751</SimpleData>
		<SimpleData name="col_index">712</SimpleData>
		<SimpleData name="NUMPOINTS">6.000000000000000</SimpleData>
	</SchemaData></ExtendedData>
      <MultiGeometry><Polygon><outerBoundaryIs><LinearRing><coordinates>-76.4423411266073,3.69769961291693 -76.4418226660655,3.69859761291693 -76.4407857449821,3.69859761291693 -76.4402672844404,3.69769961291693 -76.4407857449821,3.69680161291693 -76.4418226660655,3.69680161291693 -76.4423411266073,3.69769961291693</coordinates></LinearRing></outerBoundaryIs></Polygon></MultiGeometry>
  </Placemark>
  <Placemark>
	<Style><LineStyle><color>ff0000ff</color></LineStyle><PolyStyle><fill>0</fill></PolyStyle></Style>
	<ExtendedData><SchemaData schemaUrl="#nmero">
		<SimpleData name="id">776831</SimpleData>
		<SimpleData name="left">-76.442341126607275</SimpleData>
		<SimpleData name="top">3.700393612916932</SimpleData>
		<SimpleData name="right">-76.440267284440353</SimpleData>
		<SimpleData name="bottom">3.698597612916932</SimpleData>
		<SimpleData name="row_index">750</SimpleData>
		<SimpleData name="col_index">712</SimpleData>
		<SimpleData name="NUMPOINTS">4.000000000000000</SimpleData>
	</SchemaData></ExtendedData>
      <MultiGeometry><Polygon><outerBoundaryIs><LinearRing><coordinates>-76.4423411266073,3.69949561291693 -76.4418226660655,3.70039361291693 -76.4407857449821,3.70039361291693 -76.4402672844404,3.69949561291693 -76.4407857449821,3.69859761291693 -76.4418226660655,3.69859761291693 -76.4423411266073,3.69949561291693</coordinates></LinearRing></outerBoundaryIs></Polygon></MultiGeometry>
  </Placemark>
  <Placemark>
	<Style><LineStyle><color>ff0000ff</color></LineStyle><PolyStyle><fill>0</fill></PolyStyle></Style>
	<ExtendedData><SchemaData schemaUrl="#nmero">
		<SimpleData name="id">776834</SimpleData>
		<SimpleData name="left">-76.442341126607275</SimpleData>
		<SimpleData name="top">3.695005612916932</SimpleData>
		<SimpleData name="right">-76.440267284440353</SimpleData>
		<SimpleData name="bottom">3.693209612916932</SimpleData>
		<SimpleData name="row_index">753</SimpleData>
		<SimpleData name="col_index">712</SimpleData>
		<SimpleData name="NUMPOINTS">0.000000000000000</SimpleData>
	</SchemaData></ExtendedData>
      <MultiGeometry><Polygon><outerBoundaryIs><LinearRing><coordinates>-76.4423411266073,3.69410761291693 -76.4418226660655,3.69500561291693 -76.4407857449821,3.69500561291693 -76.4402672844404,3.69410761291693 -76.4407857449821,3.69320961291693 -76.4418226660655,3.69320961291693 -76.4423411266073,3.69410761291693</coordinates></LinearRing></outerBoundaryIs></Polygon></MultiGeometry>
  </Placemark>
  <Placemark>
	<Style><LineStyle><color>ff0000ff</color></LineStyle><PolyStyle><fill>0</fill></PolyStyle></Style>
	<ExtendedData><SchemaData schemaUrl="#nmero">
		<SimpleData name="id">776833</SimpleData>
		<SimpleData name="left">-76.442341126607275</SimpleData>
		<SimpleData name="top">3.696801612916932</SimpleData>
		<SimpleData name="right">-76.440267284440353</SimpleData>
		<SimpleData name="bottom">3.695005612916932</SimpleData>
		<SimpleData name="row_index">752</SimpleData>
		<SimpleData name="col_index">712</SimpleData>
		<SimpleData name="NUMPOINTS">1.000000000000000</SimpleData>
	</SchemaData></ExtendedData>
      <MultiGeometry><Polygon><outerBoundaryIs><LinearRing><coordinates>-76.4423411266073,3.69590361291693 -76.4418226660655,3.69680161291693 -76.4407857449821,3.69680161291693 -76.4402672844404,3.69590361291693 -76.4407857449821,3.69500561291693 -76.4418226660655,3.69500561291693 -76.4423411266073,3.69590361291693</coordinates></LinearRing></outerBoundaryIs></Polygon></MultiGeometry>
  </Placemark>
  <Placemark>
	<Style><LineStyle><color>ff0000ff</color></LineStyle><PolyStyle><fill>0</fill></PolyStyle></Style>
	<ExtendedData><SchemaData schemaUrl="#nmero">
		<SimpleData name="id">776835</SimpleData>
		<SimpleData name="left">-76.442341126607275</SimpleData>
		<SimpleData name="top">3.693209612916932</SimpleData>
		<SimpleData name="right">-76.440267284440353</SimpleData>
		<SimpleData name="bottom">3.691413612916932</SimpleData>
		<SimpleData name="row_index">754</SimpleData>
		<SimpleData name="col_index">712</SimpleData>
		<SimpleData name="NUMPOINTS">0.000000000000000</SimpleData>
	</SchemaData></ExtendedData>
      <MultiGeometry><Polygon><outerBoundaryIs><LinearRing><coordinates>-76.4423411266073,3.69231161291693 -76.4418226660655,3.69320961291693 -76.4407857449821,3.69320961291693 -76.4402672844404,3.69231161291693 -76.4407857449821,3.69141361291693 -76.4418226660655,3.69141361291693 -76.4423411266073,3.69231161291693</coordinates></LinearRing></outerBoundaryIs></Polygon></MultiGeometry>
  </Placemark>
  <Placemark>
	<Style><LineStyle><color>ff0000ff</color></LineStyle><PolyStyle><fill>0</fill></PolyStyle></Style>
	<ExtendedData><SchemaData schemaUrl="#nmero">
		<SimpleData name="id">774650</SimpleData>
		<SimpleData name="left">-76.445451889857665</SimpleData>
		<SimpleData name="top">3.702189612916932</SimpleData>
		<SimpleData name="right">-76.443378047690743</SimpleData>
		<SimpleData name="bottom">3.700393612916932</SimpleData>
		<SimpleData name="row_index">749</SimpleData>
		<SimpleData name="col_index">710</SimpleData>
		<SimpleData name="NUMPOINTS">1.000000000000000</SimpleData>
	</SchemaData></ExtendedData>
      <MultiGeometry><Polygon><outerBoundaryIs><LinearRing><coordinates>-76.4454518898577,3.70129161291693 -76.4449334293159,3.70218961291693 -76.4438965082325,3.70218961291693 -76.4433780476907,3.70129161291693 -76.4438965082325,3.70039361291693 -76.4449334293159,3.70039361291693 -76.4454518898577,3.70129161291693</coordinates></LinearRing></outerBoundaryIs></Polygon></MultiGeometry>
  </Placemark>
  <Placemark>
	<Style><LineStyle><color>ff0000ff</color></LineStyle><PolyStyle><fill>0</fill></PolyStyle></Style>
	<ExtendedData><SchemaData schemaUrl="#nmero">
		<SimpleData name="id">774649</SimpleData>
		<SimpleData name="left">-76.445451889857665</SimpleData>
		<SimpleData name="top">3.703985612916932</SimpleData>
		<SimpleData name="right">-76.443378047690743</SimpleData>
		<SimpleData name="bottom">3.702189612916932</SimpleData>
		<SimpleData name="row_index">748</SimpleData>
		<SimpleData name="col_index">710</SimpleData>
		<SimpleData name="NUMPOINTS">0.000000000000000</SimpleData>
	</SchemaData></ExtendedData>
      <MultiGeometry><Polygon><outerBoundaryIs><LinearRing><coordinates>-76.4454518898577,3.70308761291693 -76.4449334293159,3.70398561291693 -76.4438965082325,3.70398561291693 -76.4433780476907,3.70308761291693 -76.4438965082325,3.70218961291693 -76.4449334293159,3.70218961291693 -76.4454518898577,3.70308761291693</coordinates></LinearRing></outerBoundaryIs></Polygon></MultiGeometry>
  </Placemark>
  <Placemark>
	<Style><LineStyle><color>ff0000ff</color></LineStyle><PolyStyle><fill>0</fill></PolyStyle></Style>
	<ExtendedData><SchemaData schemaUrl="#nmero">
		<SimpleData name="id">774652</SimpleData>
		<SimpleData name="left">-76.445451889857665</SimpleData>
		<SimpleData name="top">3.698597612916932</SimpleData>
		<SimpleData name="right">-76.443378047690743</SimpleData>
		<SimpleData name="bottom">3.696801612916932</SimpleData>
		<SimpleData name="row_index">751</SimpleData>
		<SimpleData name="col_index">710</SimpleData>
		<SimpleData name="NUMPOINTS">2.000000000000000</SimpleData>
	</SchemaData></ExtendedData>
      <MultiGeometry><Polygon><outerBoundaryIs><LinearRing><coordinates>-76.4454518898577,3.69769961291693 -76.4449334293159,3.69859761291693 -76.4438965082325,3.69859761291693 -76.4433780476907,3.69769961291693 -76.4438965082325,3.69680161291693 -76.4449334293159,3.69680161291693 -76.4454518898577,3.69769961291693</coordinates></LinearRing></outerBoundaryIs></Polygon></MultiGeometry>
  </Placemark>
  <Placemark>
	<Style><LineStyle><color>ff0000ff</color></LineStyle><PolyStyle><fill>0</fill></PolyStyle></Style>
	<ExtendedData><SchemaData schemaUrl="#nmero">
		<SimpleData name="id">774651</SimpleData>
		<SimpleData name="left">-76.445451889857665</SimpleData>
		<SimpleData name="top">3.700393612916932</SimpleData>
		<SimpleData name="right">-76.443378047690743</SimpleData>
		<SimpleData name="bottom">3.698597612916932</SimpleData>
		<SimpleData name="row_index">750</SimpleData>
		<SimpleData name="col_index">710</SimpleData>
		<SimpleData name="NUMPOINTS">0.000000000000000</SimpleData>
	</SchemaData></ExtendedData>
      <MultiGeometry><Polygon><outerBoundaryIs><LinearRing><coordinates>-76.4454518898577,3.69949561291693 -76.4449334293159,3.70039361291693 -76.4438965082325,3.70039361291693 -76.4433780476907,3.69949561291693 -76.4438965082325,3.69859761291693 -76.4449334293159,3.69859761291693 -76.4454518898577,3.69949561291693</coordinates></LinearRing></outerBoundaryIs></Polygon></MultiGeometry>
  </Placemark>
  <Placemark>
	<Style><LineStyle><color>ff0000ff</color></LineStyle><PolyStyle><fill>0</fill></PolyStyle></Style>
	<ExtendedData><SchemaData schemaUrl="#nmero">
		<SimpleData name="id">782281</SimpleData>
		<SimpleData name="left">-76.434564218481285</SimpleData>
		<SimpleData name="top">3.699495612916932</SimpleData>
		<SimpleData name="right">-76.432490376314362</SimpleData>
		<SimpleData name="bottom">3.697699612916932</SimpleData>
		<SimpleData name="row_index">750</SimpleData>
		<SimpleData name="col_index">717</SimpleData>
		<SimpleData name="NUMPOINTS">0.000000000000000</SimpleData>
	</SchemaData></ExtendedData>
      <MultiGeometry><Polygon><outerBoundaryIs><LinearRing><coordinates>-76.4345642184813,3.69859761291693 -76.4340457579396,3.69949561291693 -76.4330088368561,3.69949561291693 -76.4324903763144,3.69859761291693 -76.4330088368561,3.69769961291693 -76.4340457579396,3.69769961291693 -76.4345642184813,3.69859761291693</coordinates></LinearRing></outerBoundaryIs></Polygon></MultiGeometry>
  </Placemark>
  <Placemark>
	<Style><LineStyle><color>ff0000ff</color></LineStyle><PolyStyle><fill>0</fill></PolyStyle></Style>
	<ExtendedData><SchemaData schemaUrl="#nmero">
		<SimpleData name="id">774653</SimpleData>
		<SimpleData name="left">-76.445451889857665</SimpleData>
		<SimpleData name="top">3.696801612916932</SimpleData>
		<SimpleData name="right">-76.443378047690743</SimpleData>
		<SimpleData name="bottom">3.695005612916932</SimpleData>
		<SimpleData name="row_index">752</SimpleData>
		<SimpleData name="col_index">710</SimpleData>
		<SimpleData name="NUMPOINTS">0.000000000000000</SimpleData>
	</SchemaData></ExtendedData>
      <MultiGeometry><Polygon><outerBoundaryIs><LinearRing><coordinates>-76.4454518898577,3.69590361291693 -76.4449334293159,3.69680161291693 -76.4438965082325,3.69680161291693 -76.4433780476907,3.69590361291693 -76.4438965082325,3.69500561291693 -76.4449334293159,3.69500561291693 -76.4454518898577,3.69590361291693</coordinates></LinearRing></outerBoundaryIs></Polygon></MultiGeometry>
  </Placemark>
  <Placemark>
	<Style><LineStyle><color>ff0000ff</color></LineStyle><PolyStyle><fill>0</fill></PolyStyle></Style>
	<ExtendedData><SchemaData schemaUrl="#nmero">
		<SimpleData name="id">779008</SimpleData>
		<SimpleData name="left">-76.439230363356884</SimpleData>
		<SimpleData name="top">3.705781612916932</SimpleData>
		<SimpleData name="right">-76.437156521189962</SimpleData>
		<SimpleData name="bottom">3.703985612916932</SimpleData>
		<SimpleData name="row_index">747</SimpleData>
		<SimpleData name="col_index">714</SimpleData>
		<SimpleData name="NUMPOINTS">0.000000000000000</SimpleData>
	</SchemaData></ExtendedData>
      <MultiGeometry><Polygon><outerBoundaryIs><LinearRing><coordinates>-76.4392303633569,3.70488361291693 -76.4387119028152,3.70578161291693 -76.4376749817317,3.70578161291693 -76.43715652119,3.70488361291693 -76.4376749817317,3.70398561291693 -76.4387119028152,3.70398561291693 -76.4392303633569,3.70488361291693</coordinates></LinearRing></outerBoundaryIs></Polygon></MultiGeometry>
  </Placemark>
  <Placemark>
	<Style><LineStyle><color>ff0000ff</color></LineStyle><PolyStyle><fill>0</fill></PolyStyle></Style>
	<ExtendedData><SchemaData schemaUrl="#nmero">
		<SimpleData name="id">775743</SimpleData>
		<SimpleData name="left">-76.443896508232470</SimpleData>
		<SimpleData name="top">3.695903612916932</SimpleData>
		<SimpleData name="right">-76.441822666065548</SimpleData>
		<SimpleData name="bottom">3.694107612916932</SimpleData>
		<SimpleData name="row_index">752</SimpleData>
		<SimpleData name="col_index">711</SimpleData>
		<SimpleData name="NUMPOINTS">2.000000000000000</SimpleData>
	</SchemaData></ExtendedData>
      <MultiGeometry><Polygon><outerBoundaryIs><LinearRing><coordinates>-76.4438965082325,3.69500561291693 -76.4433780476907,3.69590361291693 -76.4423411266073,3.69590361291693 -76.4418226660655,3.69500561291693 -76.4423411266073,3.69410761291693 -76.4433780476907,3.69410761291693 -76.4438965082325,3.69500561291693</coordinates></LinearRing></outerBoundaryIs></Polygon></MultiGeometry>
  </Placemark>
  <Placemark>
	<Style><LineStyle><color>ff0000ff</color></LineStyle><PolyStyle><fill>0</fill></PolyStyle></Style>
	<ExtendedData><SchemaData schemaUrl="#nmero">
		<SimpleData name="id">779011</SimpleData>
		<SimpleData name="left">-76.439230363356884</SimpleData>
		<SimpleData name="top">3.700393612916932</SimpleData>
		<SimpleData name="right">-76.437156521189962</SimpleData>
		<SimpleData name="bottom">3.698597612916932</SimpleData>
		<SimpleData name="row_index">750</SimpleData>
		<SimpleData name="col_index">714</SimpleData>
		<SimpleData name="NUMPOINTS">0.000000000000000</SimpleData>
	</SchemaData></ExtendedData>
      <MultiGeometry><Polygon><outerBoundaryIs><LinearRing><coordinates>-76.4392303633569,3.69949561291693 -76.4387119028152,3.70039361291693 -76.4376749817317,3.70039361291693 -76.43715652119,3.69949561291693 -76.4376749817317,3.69859761291693 -76.4387119028152,3.69859761291693 -76.4392303633569,3.69949561291693</coordinates></LinearRing></outerBoundaryIs></Polygon></MultiGeometry>
  </Placemark>
  <Placemark>
	<Style><LineStyle><color>ff0000ff</color></LineStyle><PolyStyle><fill>0</fill></PolyStyle></Style>
	<ExtendedData><SchemaData schemaUrl="#nmero">
		<SimpleData name="id">781190</SimpleData>
		<SimpleData name="left">-76.436119600106494</SimpleData>
		<SimpleData name="top">3.702189612916932</SimpleData>
		<SimpleData name="right">-76.434045757939572</SimpleData>
		<SimpleData name="bottom">3.700393612916932</SimpleData>
		<SimpleData name="row_index">749</SimpleData>
		<SimpleData name="col_index">716</SimpleData>
		<SimpleData name="NUMPOINTS">0.000000000000000</SimpleData>
	</SchemaData></ExtendedData>
      <MultiGeometry><Polygon><outerBoundaryIs><LinearRing><coordinates>-76.4361196001065,3.70129161291693 -76.4356011395648,3.70218961291693 -76.4345642184813,3.70218961291693 -76.4340457579396,3.70129161291693 -76.4345642184813,3.70039361291693 -76.4356011395648,3.70039361291693 -76.4361196001065,3.70129161291693</coordinates></LinearRing></outerBoundaryIs></Polygon></MultiGeometry>
  </Placemark>
  <Placemark>
	<Style><LineStyle><color>ff0000ff</color></LineStyle><PolyStyle><fill>0</fill></PolyStyle></Style>
	<ExtendedData><SchemaData schemaUrl="#nmero">
		<SimpleData name="id">775742</SimpleData>
		<SimpleData name="left">-76.443896508232470</SimpleData>
		<SimpleData name="top">3.697699612916932</SimpleData>
		<SimpleData name="right">-76.441822666065548</SimpleData>
		<SimpleData name="bottom">3.695903612916932</SimpleData>
		<SimpleData name="row_index">751</SimpleData>
		<SimpleData name="col_index">711</SimpleData>
		<SimpleData name="NUMPOINTS">1.000000000000000</SimpleData>
	</SchemaData></ExtendedData>
      <MultiGeometry><Polygon><outerBoundaryIs><LinearRing><coordinates>-76.4438965082325,3.69680161291693 -76.4433780476907,3.69769961291693 -76.4423411266073,3.69769961291693 -76.4418226660655,3.69680161291693 -76.4423411266073,3.69590361291693 -76.4433780476907,3.69590361291693 -76.4438965082325,3.69680161291693</coordinates></LinearRing></outerBoundaryIs></Polygon></MultiGeometry>
  </Placemark>
  <Placemark>
	<Style><LineStyle><color>ff0000ff</color></LineStyle><PolyStyle><fill>0</fill></PolyStyle></Style>
	<ExtendedData><SchemaData schemaUrl="#nmero">
		<SimpleData name="id">779010</SimpleData>
		<SimpleData name="left">-76.439230363356884</SimpleData>
		<SimpleData name="top">3.702189612916932</SimpleData>
		<SimpleData name="right">-76.437156521189962</SimpleData>
		<SimpleData name="bottom">3.700393612916932</SimpleData>
		<SimpleData name="row_index">749</SimpleData>
		<SimpleData name="col_index">714</SimpleData>
		<SimpleData name="NUMPOINTS">0.000000000000000</SimpleData>
	</SchemaData></ExtendedData>
      <MultiGeometry><Polygon><outerBoundaryIs><LinearRing><coordinates>-76.4392303633569,3.70129161291693 -76.4387119028152,3.70218961291693 -76.4376749817317,3.70218961291693 -76.43715652119,3.70129161291693 -76.4376749817317,3.70039361291693 -76.4387119028152,3.70039361291693 -76.4392303633569,3.70129161291693</coordinates></LinearRing></outerBoundaryIs></Polygon></MultiGeometry>
  </Placemark>
  <Placemark>
	<Style><LineStyle><color>ff0000ff</color></LineStyle><PolyStyle><fill>0</fill></PolyStyle></Style>
	<ExtendedData><SchemaData schemaUrl="#nmero">
		<SimpleData name="id">773563</SimpleData>
		<SimpleData name="left">-76.447007271482860</SimpleData>
		<SimpleData name="top">3.695903612916932</SimpleData>
		<SimpleData name="right">-76.444933429315938</SimpleData>
		<SimpleData name="bottom">3.694107612916932</SimpleData>
		<SimpleData name="row_index">752</SimpleData>
		<SimpleData name="col_index">709</SimpleData>
		<SimpleData name="NUMPOINTS">0.000000000000000</SimpleData>
	</SchemaData></ExtendedData>
      <MultiGeometry><Polygon><outerBoundaryIs><LinearRing><coordinates>-76.4470072714829,3.69500561291693 -76.4464888109411,3.69590361291693 -76.4454518898577,3.69590361291693 -76.4449334293159,3.69500561291693 -76.4454518898577,3.69410761291693 -76.4464888109411,3.69410761291693 -76.4470072714829,3.69500561291693</coordinates></LinearRing></outerBoundaryIs></Polygon></MultiGeometry>
  </Placemark>
  <Placemark>
	<Style><LineStyle><color>ff0000ff</color></LineStyle><PolyStyle><fill>0</fill></PolyStyle></Style>
	<ExtendedData><SchemaData schemaUrl="#nmero">
		<SimpleData name="id">775745</SimpleData>
		<SimpleData name="left">-76.443896508232470</SimpleData>
		<SimpleData name="top">3.692311612916932</SimpleData>
		<SimpleData name="right">-76.441822666065548</SimpleData>
		<SimpleData name="bottom">3.690515612916932</SimpleData>
		<SimpleData name="row_index">754</SimpleData>
		<SimpleData name="col_index">711</SimpleData>
		<SimpleData name="NUMPOINTS">0.000000000000000</SimpleData>
	</SchemaData></ExtendedData>
      <MultiGeometry><Polygon><outerBoundaryIs><LinearRing><coordinates>-76.4438965082325,3.69141361291693 -76.4433780476907,3.69231161291693 -76.4423411266073,3.69231161291693 -76.4418226660655,3.69141361291693 -76.4423411266073,3.69051561291693 -76.4433780476907,3.69051561291693 -76.4438965082325,3.69141361291693</coordinates></LinearRing></outerBoundaryIs></Polygon></MultiGeometry>
  </Placemark>
  <Placemark>
	<Style><LineStyle><color>ff0000ff</color></LineStyle><PolyStyle><fill>0</fill></PolyStyle></Style>
	<ExtendedData><SchemaData schemaUrl="#nmero">
		<SimpleData name="id">779013</SimpleData>
		<SimpleData name="left">-76.439230363356884</SimpleData>
		<SimpleData name="top">3.696801612916932</SimpleData>
		<SimpleData name="right">-76.437156521189962</SimpleData>
		<SimpleData name="bottom">3.695005612916932</SimpleData>
		<SimpleData name="row_index">752</SimpleData>
		<SimpleData name="col_index">714</SimpleData>
		<SimpleData name="NUMPOINTS">1.000000000000000</SimpleData>
	</SchemaData></ExtendedData>
      <MultiGeometry><Polygon><outerBoundaryIs><LinearRing><coordinates>-76.4392303633569,3.69590361291693 -76.4387119028152,3.69680161291693 -76.4376749817317,3.69680161291693 -76.43715652119,3.69590361291693 -76.4376749817317,3.69500561291693 -76.4387119028152,3.69500561291693 -76.4392303633569,3.69590361291693</coordinates></LinearRing></outerBoundaryIs></Polygon></MultiGeometry>
  </Placemark>
  <Placemark>
	<Style><LineStyle><color>ff0000ff</color></LineStyle><PolyStyle><fill>0</fill></PolyStyle></Style>
	<ExtendedData><SchemaData schemaUrl="#nmero">
		<SimpleData name="id">781192</SimpleData>
		<SimpleData name="left">-76.436119600106494</SimpleData>
		<SimpleData name="top">3.698597612916932</SimpleData>
		<SimpleData name="right">-76.434045757939572</SimpleData>
		<SimpleData name="bottom">3.696801612916932</SimpleData>
		<SimpleData name="row_index">751</SimpleData>
		<SimpleData name="col_index">716</SimpleData>
		<SimpleData name="NUMPOINTS">0.000000000000000</SimpleData>
	</SchemaData></ExtendedData>
      <MultiGeometry><Polygon><outerBoundaryIs><LinearRing><coordinates>-76.4361196001065,3.69769961291693 -76.4356011395648,3.69859761291693 -76.4345642184813,3.69859761291693 -76.4340457579396,3.69769961291693 -76.4345642184813,3.69680161291693 -76.4356011395648,3.69680161291693 -76.4361196001065,3.69769961291693</coordinates></LinearRing></outerBoundaryIs></Polygon></MultiGeometry>
  </Placemark>
  <Placemark>
	<Style><LineStyle><color>ff0000ff</color></LineStyle><PolyStyle><fill>0</fill></PolyStyle></Style>
	<ExtendedData><SchemaData schemaUrl="#nmero">
		<SimpleData name="id">773562</SimpleData>
		<SimpleData name="left">-76.447007271482860</SimpleData>
		<SimpleData name="top">3.697699612916932</SimpleData>
		<SimpleData name="right">-76.444933429315938</SimpleData>
		<SimpleData name="bottom">3.695903612916932</SimpleData>
		<SimpleData name="row_index">751</SimpleData>
		<SimpleData name="col_index">709</SimpleData>
		<SimpleData name="NUMPOINTS">0.000000000000000</SimpleData>
	</SchemaData></ExtendedData>
      <MultiGeometry><Polygon><outerBoundaryIs><LinearRing><coordinates>-76.4470072714829,3.69680161291693 -76.4464888109411,3.69769961291693 -76.4454518898577,3.69769961291693 -76.4449334293159,3.69680161291693 -76.4454518898577,3.69590361291693 -76.4464888109411,3.69590361291693 -76.4470072714829,3.69680161291693</coordinates></LinearRing></outerBoundaryIs></Polygon></MultiGeometry>
  </Placemark>
  <Placemark>
	<Style><LineStyle><color>ff0000ff</color></LineStyle><PolyStyle><fill>0</fill></PolyStyle></Style>
	<ExtendedData><SchemaData schemaUrl="#nmero">
		<SimpleData name="id">775744</SimpleData>
		<SimpleData name="left">-76.443896508232470</SimpleData>
		<SimpleData name="top">3.694107612916932</SimpleData>
		<SimpleData name="right">-76.441822666065548</SimpleData>
		<SimpleData name="bottom">3.692311612916932</SimpleData>
		<SimpleData name="row_index">753</SimpleData>
		<SimpleData name="col_index">711</SimpleData>
		<SimpleData name="NUMPOINTS">0.000000000000000</SimpleData>
	</SchemaData></ExtendedData>
      <MultiGeometry><Polygon><outerBoundaryIs><LinearRing><coordinates>-76.4438965082325,3.69320961291693 -76.4433780476907,3.69410761291693 -76.4423411266073,3.69410761291693 -76.4418226660655,3.69320961291693 -76.4423411266073,3.69231161291693 -76.4433780476907,3.69231161291693 -76.4438965082325,3.69320961291693</coordinates></LinearRing></outerBoundaryIs></Polygon></MultiGeometry>
  </Placemark>
  <Placemark>
	<Style><LineStyle><color>ff0000ff</color></LineStyle><PolyStyle><fill>0</fill></PolyStyle></Style>
	<ExtendedData><SchemaData schemaUrl="#nmero">
		<SimpleData name="id">779012</SimpleData>
		<SimpleData name="left">-76.439230363356884</SimpleData>
		<SimpleData name="top">3.698597612916932</SimpleData>
		<SimpleData name="right">-76.437156521189962</SimpleData>
		<SimpleData name="bottom">3.696801612916932</SimpleData>
		<SimpleData name="row_index">751</SimpleData>
		<SimpleData name="col_index">714</SimpleData>
		<SimpleData name="NUMPOINTS">3.000000000000000</SimpleData>
	</SchemaData></ExtendedData>
      <MultiGeometry><Polygon><outerBoundaryIs><LinearRing><coordinates>-76.4392303633569,3.69769961291693 -76.4387119028152,3.69859761291693 -76.4376749817317,3.69859761291693 -76.43715652119,3.69769961291693 -76.4376749817317,3.69680161291693 -76.4387119028152,3.69680161291693 -76.4392303633569,3.69769961291693</coordinates></LinearRing></outerBoundaryIs></Polygon></MultiGeometry>
  </Placemark>
  <Placemark>
	<Style><LineStyle><color>ff0000ff</color></LineStyle><PolyStyle><fill>0</fill></PolyStyle></Style>
	<ExtendedData><SchemaData schemaUrl="#nmero">
		<SimpleData name="id">781191</SimpleData>
		<SimpleData name="left">-76.436119600106494</SimpleData>
		<SimpleData name="top">3.700393612916932</SimpleData>
		<SimpleData name="right">-76.434045757939572</SimpleData>
		<SimpleData name="bottom">3.698597612916932</SimpleData>
		<SimpleData name="row_index">750</SimpleData>
		<SimpleData name="col_index">716</SimpleData>
		<SimpleData name="NUMPOINTS">0.000000000000000</SimpleData>
	</SchemaData></ExtendedData>
      <MultiGeometry><Polygon><outerBoundaryIs><LinearRing><coordinates>-76.4361196001065,3.69949561291693 -76.4356011395648,3.70039361291693 -76.4345642184813,3.70039361291693 -76.4340457579396,3.69949561291693 -76.4345642184813,3.69859761291693 -76.4356011395648,3.69859761291693 -76.4361196001065,3.69949561291693</coordinates></LinearRing></outerBoundaryIs></Polygon></MultiGeometry>
  </Placemark>
  <Placemark>
	<Style><LineStyle><color>ff0000ff</color></LineStyle><PolyStyle><fill>0</fill></PolyStyle></Style>
	<ExtendedData><SchemaData schemaUrl="#nmero">
		<SimpleData name="id">779015</SimpleData>
		<SimpleData name="left">-76.439230363356884</SimpleData>
		<SimpleData name="top">3.693209612916932</SimpleData>
		<SimpleData name="right">-76.437156521189962</SimpleData>
		<SimpleData name="bottom">3.691413612916932</SimpleData>
		<SimpleData name="row_index">754</SimpleData>
		<SimpleData name="col_index">714</SimpleData>
		<SimpleData name="NUMPOINTS">2.000000000000000</SimpleData>
	</SchemaData></ExtendedData>
      <MultiGeometry><Polygon><outerBoundaryIs><LinearRing><coordinates>-76.4392303633569,3.69231161291693 -76.4387119028152,3.69320961291693 -76.4376749817317,3.69320961291693 -76.43715652119,3.69231161291693 -76.4376749817317,3.69141361291693 -76.4387119028152,3.69141361291693 -76.4392303633569,3.69231161291693</coordinates></LinearRing></outerBoundaryIs></Polygon></MultiGeometry>
  </Placemark>
  <Placemark>
	<Style><LineStyle><color>ff0000ff</color></LineStyle><PolyStyle><fill>0</fill></PolyStyle></Style>
	<ExtendedData><SchemaData schemaUrl="#nmero">
		<SimpleData name="id">779014</SimpleData>
		<SimpleData name="left">-76.439230363356884</SimpleData>
		<SimpleData name="top">3.695005612916932</SimpleData>
		<SimpleData name="right">-76.437156521189962</SimpleData>
		<SimpleData name="bottom">3.693209612916932</SimpleData>
		<SimpleData name="row_index">753</SimpleData>
		<SimpleData name="col_index">714</SimpleData>
		<SimpleData name="NUMPOINTS">1.000000000000000</SimpleData>
	</SchemaData></ExtendedData>
      <MultiGeometry><Polygon><outerBoundaryIs><LinearRing><coordinates>-76.4392303633569,3.69410761291693 -76.4387119028152,3.69500561291693 -76.4376749817317,3.69500561291693 -76.43715652119,3.69410761291693 -76.4376749817317,3.69320961291693 -76.4387119028152,3.69320961291693 -76.4392303633569,3.69410761291693</coordinates></LinearRing></outerBoundaryIs></Polygon></MultiGeometry>
  </Placemark>
  <Placemark>
	<Style><LineStyle><color>ff0000ff</color></LineStyle><PolyStyle><fill>0</fill></PolyStyle></Style>
	<ExtendedData><SchemaData schemaUrl="#nmero">
		<SimpleData name="id">781193</SimpleData>
		<SimpleData name="left">-76.436119600106494</SimpleData>
		<SimpleData name="top">3.696801612916932</SimpleData>
		<SimpleData name="right">-76.434045757939572</SimpleData>
		<SimpleData name="bottom">3.695005612916932</SimpleData>
		<SimpleData name="row_index">752</SimpleData>
		<SimpleData name="col_index">716</SimpleData>
		<SimpleData name="NUMPOINTS">0.000000000000000</SimpleData>
	</SchemaData></ExtendedData>
      <MultiGeometry><Polygon><outerBoundaryIs><LinearRing><coordinates>-76.4361196001065,3.69590361291693 -76.4356011395648,3.69680161291693 -76.4345642184813,3.69680161291693 -76.4340457579396,3.69590361291693 -76.4345642184813,3.69500561291693 -76.4356011395648,3.69500561291693 -76.4361196001065,3.69590361291693</coordinates></LinearRing></outerBoundaryIs></Polygon></MultiGeometry>
  </Placemark>
  <Placemark>
	<Style><LineStyle><color>ff0000ff</color></LineStyle><PolyStyle><fill>0</fill></PolyStyle></Style>
	<ExtendedData><SchemaData schemaUrl="#nmero">
		<SimpleData name="id">773559</SimpleData>
		<SimpleData name="left">-76.447007271482860</SimpleData>
		<SimpleData name="top">3.703087612916932</SimpleData>
		<SimpleData name="right">-76.444933429315938</SimpleData>
		<SimpleData name="bottom">3.701291612916932</SimpleData>
		<SimpleData name="row_index">748</SimpleData>
		<SimpleData name="col_index">709</SimpleData>
		<SimpleData name="NUMPOINTS">0.000000000000000</SimpleData>
	</SchemaData></ExtendedData>
      <MultiGeometry><Polygon><outerBoundaryIs><LinearRing><coordinates>-76.4470072714829,3.70218961291693 -76.4464888109411,3.70308761291693 -76.4454518898577,3.70308761291693 -76.4449334293159,3.70218961291693 -76.4454518898577,3.70129161291693 -76.4464888109411,3.70129161291693 -76.4470072714829,3.70218961291693</coordinates></LinearRing></outerBoundaryIs></Polygon></MultiGeometry>
  </Placemark>
  <Placemark>
	<Style><LineStyle><color>ff0000ff</color></LineStyle><PolyStyle><fill>0</fill></PolyStyle></Style>
	<ExtendedData><SchemaData schemaUrl="#nmero">
		<SimpleData name="id">773558</SimpleData>
		<SimpleData name="left">-76.447007271482860</SimpleData>
		<SimpleData name="top">3.704883612916932</SimpleData>
		<SimpleData name="right">-76.444933429315938</SimpleData>
		<SimpleData name="bottom">3.703087612916932</SimpleData>
		<SimpleData name="row_index">747</SimpleData>
		<SimpleData name="col_index">709</SimpleData>
		<SimpleData name="NUMPOINTS">0.000000000000000</SimpleData>
	</SchemaData></ExtendedData>
      <MultiGeometry><Polygon><outerBoundaryIs><LinearRing><coordinates>-76.4470072714829,3.70398561291693 -76.4464888109411,3.70488361291693 -76.4454518898577,3.70488361291693 -76.4449334293159,3.70398561291693 -76.4454518898577,3.70308761291693 -76.4464888109411,3.70308761291693 -76.4470072714829,3.70398561291693</coordinates></LinearRing></outerBoundaryIs></Polygon></MultiGeometry>
  </Placemark>
  <Placemark>
	<Style><LineStyle><color>ff0000ff</color></LineStyle><PolyStyle><fill>0</fill></PolyStyle></Style>
	<ExtendedData><SchemaData schemaUrl="#nmero">
		<SimpleData name="id">777918</SimpleData>
		<SimpleData name="left">-76.440785744982080</SimpleData>
		<SimpleData name="top">3.704883612916932</SimpleData>
		<SimpleData name="right">-76.438711902815157</SimpleData>
		<SimpleData name="bottom">3.703087612916932</SimpleData>
		<SimpleData name="row_index">747</SimpleData>
		<SimpleData name="col_index">713</SimpleData>
		<SimpleData name="NUMPOINTS">0.000000000000000</SimpleData>
	</SchemaData></ExtendedData>
      <MultiGeometry><Polygon><outerBoundaryIs><LinearRing><coordinates>-76.4407857449821,3.70398561291693 -76.4402672844404,3.70488361291693 -76.4392303633569,3.70488361291693 -76.4387119028152,3.70398561291693 -76.4392303633569,3.70308761291693 -76.4402672844404,3.70308761291693 -76.4407857449821,3.70398561291693</coordinates></LinearRing></outerBoundaryIs></Polygon></MultiGeometry>
  </Placemark>
  <Placemark>
	<Style><LineStyle><color>ff0000ff</color></LineStyle><PolyStyle><fill>0</fill></PolyStyle></Style>
	<ExtendedData><SchemaData schemaUrl="#nmero">
		<SimpleData name="id">773561</SimpleData>
		<SimpleData name="left">-76.447007271482860</SimpleData>
		<SimpleData name="top">3.699495612916932</SimpleData>
		<SimpleData name="right">-76.444933429315938</SimpleData>
		<SimpleData name="bottom">3.697699612916932</SimpleData>
		<SimpleData name="row_index">750</SimpleData>
		<SimpleData name="col_index">709</SimpleData>
		<SimpleData name="NUMPOINTS">0.000000000000000</SimpleData>
	</SchemaData></ExtendedData>
      <MultiGeometry><Polygon><outerBoundaryIs><LinearRing><coordinates>-76.4470072714829,3.69859761291693 -76.4464888109411,3.69949561291693 -76.4454518898577,3.69949561291693 -76.4449334293159,3.69859761291693 -76.4454518898577,3.69769961291693 -76.4464888109411,3.69769961291693 -76.4470072714829,3.69859761291693</coordinates></LinearRing></outerBoundaryIs></Polygon></MultiGeometry>
  </Placemark>
  <Placemark>
	<Style><LineStyle><color>ff0000ff</color></LineStyle><PolyStyle><fill>0</fill></PolyStyle></Style>
	<ExtendedData><SchemaData schemaUrl="#nmero">
		<SimpleData name="id">777917</SimpleData>
		<SimpleData name="left">-76.440785744982080</SimpleData>
		<SimpleData name="top">3.706679612916932</SimpleData>
		<SimpleData name="right">-76.438711902815157</SimpleData>
		<SimpleData name="bottom">3.704883612916932</SimpleData>
		<SimpleData name="row_index">746</SimpleData>
		<SimpleData name="col_index">713</SimpleData>
		<SimpleData name="NUMPOINTS">0.000000000000000</SimpleData>
	</SchemaData></ExtendedData>
      <MultiGeometry><Polygon><outerBoundaryIs><LinearRing><coordinates>-76.4407857449821,3.70578161291693 -76.4402672844404,3.70667961291693 -76.4392303633569,3.70667961291693 -76.4387119028152,3.70578161291693 -76.4392303633569,3.70488361291693 -76.4402672844404,3.70488361291693 -76.4407857449821,3.70578161291693</coordinates></LinearRing></outerBoundaryIs></Polygon></MultiGeometry>
  </Placemark>
  <Placemark>
	<Style><LineStyle><color>ff0000ff</color></LineStyle><PolyStyle><fill>0</fill></PolyStyle></Style>
	<ExtendedData><SchemaData schemaUrl="#nmero">
		<SimpleData name="id">771379</SimpleData>
		<SimpleData name="left">-76.450118034733265</SimpleData>
		<SimpleData name="top">3.703087612916932</SimpleData>
		<SimpleData name="right">-76.448044192566343</SimpleData>
		<SimpleData name="bottom">3.701291612916932</SimpleData>
		<SimpleData name="row_index">748</SimpleData>
		<SimpleData name="col_index">707</SimpleData>
		<SimpleData name="NUMPOINTS">0.000000000000000</SimpleData>
	</SchemaData></ExtendedData>
      <MultiGeometry><Polygon><outerBoundaryIs><LinearRing><coordinates>-76.4501180347333,3.70218961291693 -76.4495995741915,3.70308761291693 -76.4485626531081,3.70308761291693 -76.4480441925663,3.70218961291693 -76.4485626531081,3.70129161291693 -76.4495995741915,3.70129161291693 -76.4501180347333,3.70218961291693</coordinates></LinearRing></outerBoundaryIs></Polygon></MultiGeometry>
  </Placemark>
  <Placemark>
	<Style><LineStyle><color>ff0000ff</color></LineStyle><PolyStyle><fill>0</fill></PolyStyle></Style>
	<ExtendedData><SchemaData schemaUrl="#nmero">
		<SimpleData name="id">773560</SimpleData>
		<SimpleData name="left">-76.447007271482860</SimpleData>
		<SimpleData name="top">3.701291612916932</SimpleData>
		<SimpleData name="right">-76.444933429315938</SimpleData>
		<SimpleData name="bottom">3.699495612916932</SimpleData>
		<SimpleData name="row_index">749</SimpleData>
		<SimpleData name="col_index">709</SimpleData>
		<SimpleData name="NUMPOINTS">2.000000000000000</SimpleData>
	</SchemaData></ExtendedData>
      <MultiGeometry><Polygon><outerBoundaryIs><LinearRing><coordinates>-76.4470072714829,3.70039361291693 -76.4464888109411,3.70129161291693 -76.4454518898577,3.70129161291693 -76.4449334293159,3.70039361291693 -76.4454518898577,3.69949561291693 -76.4464888109411,3.69949561291693 -76.4470072714829,3.70039361291693</coordinates></LinearRing></outerBoundaryIs></Polygon></MultiGeometry>
  </Placemark>
  <Placemark>
	<Style><LineStyle><color>ff0000ff</color></LineStyle><PolyStyle><fill>0</fill></PolyStyle></Style>
	<ExtendedData><SchemaData schemaUrl="#nmero">
		<SimpleData name="id">777920</SimpleData>
		<SimpleData name="left">-76.440785744982080</SimpleData>
		<SimpleData name="top">3.701291612916932</SimpleData>
		<SimpleData name="right">-76.438711902815157</SimpleData>
		<SimpleData name="bottom">3.699495612916932</SimpleData>
		<SimpleData name="row_index">749</SimpleData>
		<SimpleData name="col_index">713</SimpleData>
		<SimpleData name="NUMPOINTS">0.000000000000000</SimpleData>
	</SchemaData></ExtendedData>
      <MultiGeometry><Polygon><outerBoundaryIs><LinearRing><coordinates>-76.4407857449821,3.70039361291693 -76.4402672844404,3.70129161291693 -76.4392303633569,3.70129161291693 -76.4387119028152,3.70039361291693 -76.4392303633569,3.69949561291693 -76.4402672844404,3.69949561291693 -76.4407857449821,3.70039361291693</coordinates></LinearRing></outerBoundaryIs></Polygon></MultiGeometry>
  </Placemark>
  <Placemark>
	<Style><LineStyle><color>ff0000ff</color></LineStyle><PolyStyle><fill>0</fill></PolyStyle></Style>
	<ExtendedData><SchemaData schemaUrl="#nmero">
		<SimpleData name="id">771378</SimpleData>
		<SimpleData name="left">-76.450118034733265</SimpleData>
		<SimpleData name="top">3.704883612916932</SimpleData>
		<SimpleData name="right">-76.448044192566343</SimpleData>
		<SimpleData name="bottom">3.703087612916932</SimpleData>
		<SimpleData name="row_index">747</SimpleData>
		<SimpleData name="col_index">707</SimpleData>
		<SimpleData name="NUMPOINTS">0.000000000000000</SimpleData>
	</SchemaData></ExtendedData>
      <MultiGeometry><Polygon><outerBoundaryIs><LinearRing><coordinates>-76.4501180347333,3.70398561291693 -76.4495995741915,3.70488361291693 -76.4485626531081,3.70488361291693 -76.4480441925663,3.70398561291693 -76.4485626531081,3.70308761291693 -76.4495995741915,3.70308761291693 -76.4501180347333,3.70398561291693</coordinates></LinearRing></outerBoundaryIs></Polygon></MultiGeometry>
  </Placemark>
  <Placemark>
	<Style><LineStyle><color>ff0000ff</color></LineStyle><PolyStyle><fill>0</fill></PolyStyle></Style>
	<ExtendedData><SchemaData schemaUrl="#nmero">
		<SimpleData name="id">777919</SimpleData>
		<SimpleData name="left">-76.440785744982080</SimpleData>
		<SimpleData name="top">3.703087612916932</SimpleData>
		<SimpleData name="right">-76.438711902815157</SimpleData>
		<SimpleData name="bottom">3.701291612916932</SimpleData>
		<SimpleData name="row_index">748</SimpleData>
		<SimpleData name="col_index">713</SimpleData>
		<SimpleData name="NUMPOINTS">0.000000000000000</SimpleData>
	</SchemaData></ExtendedData>
      <MultiGeometry><Polygon><outerBoundaryIs><LinearRing><coordinates>-76.4407857449821,3.70218961291693 -76.4402672844404,3.70308761291693 -76.4392303633569,3.70308761291693 -76.4387119028152,3.70218961291693 -76.4392303633569,3.70129161291693 -76.4402672844404,3.70129161291693 -76.4407857449821,3.70218961291693</coordinates></LinearRing></outerBoundaryIs></Polygon></MultiGeometry>
  </Placemark>
  <Placemark>
	<Style><LineStyle><color>ff0000ff</color></LineStyle><PolyStyle><fill>0</fill></PolyStyle></Style>
	<ExtendedData><SchemaData schemaUrl="#nmero">
		<SimpleData name="id">771380</SimpleData>
		<SimpleData name="left">-76.450118034733265</SimpleData>
		<SimpleData name="top">3.701291612916932</SimpleData>
		<SimpleData name="right">-76.448044192566343</SimpleData>
		<SimpleData name="bottom">3.699495612916932</SimpleData>
		<SimpleData name="row_index">749</SimpleData>
		<SimpleData name="col_index">707</SimpleData>
		<SimpleData name="NUMPOINTS">0.000000000000000</SimpleData>
	</SchemaData></ExtendedData>
      <MultiGeometry><Polygon><outerBoundaryIs><LinearRing><coordinates>-76.4501180347333,3.70039361291693 -76.4495995741915,3.70129161291693 -76.4485626531081,3.70129161291693 -76.4480441925663,3.70039361291693 -76.4485626531081,3.69949561291693 -76.4495995741915,3.69949561291693 -76.4501180347333,3.70039361291693</coordinates></LinearRing></outerBoundaryIs></Polygon></MultiGeometry>
  </Placemark>
  <Placemark>
	<Style><LineStyle><color>ff0000ff</color></LineStyle><PolyStyle><fill>0</fill></PolyStyle></Style>
	<ExtendedData><SchemaData schemaUrl="#nmero">
		<SimpleData name="id">772470</SimpleData>
		<SimpleData name="left">-76.448562653108041</SimpleData>
		<SimpleData name="top">3.702189612916932</SimpleData>
		<SimpleData name="right">-76.446488810941133</SimpleData>
		<SimpleData name="bottom">3.700393612916932</SimpleData>
		<SimpleData name="row_index">749</SimpleData>
		<SimpleData name="col_index">708</SimpleData>
		<SimpleData name="NUMPOINTS">0.000000000000000</SimpleData>
	</SchemaData></ExtendedData>
      <MultiGeometry><Polygon><outerBoundaryIs><LinearRing><coordinates>-76.4485626531081,3.70129161291693 -76.4480441925663,3.70218961291693 -76.4470072714829,3.70218961291693 -76.4464888109411,3.70129161291693 -76.4470072714829,3.70039361291693 -76.4480441925663,3.70039361291693 -76.4485626531081,3.70129161291693</coordinates></LinearRing></outerBoundaryIs></Polygon></MultiGeometry>
  </Placemark>
  <Placemark>
	<Style><LineStyle><color>ff0000ff</color></LineStyle><PolyStyle><fill>0</fill></PolyStyle></Style>
	<ExtendedData><SchemaData schemaUrl="#nmero">
		<SimpleData name="id">769198</SimpleData>
		<SimpleData name="left">-76.453228797983641</SimpleData>
		<SimpleData name="top">3.704883612916932</SimpleData>
		<SimpleData name="right">-76.451154955816733</SimpleData>
		<SimpleData name="bottom">3.703087612916932</SimpleData>
		<SimpleData name="row_index">747</SimpleData>
		<SimpleData name="col_index">705</SimpleData>
		<SimpleData name="NUMPOINTS">0.000000000000000</SimpleData>
	</SchemaData></ExtendedData>
      <MultiGeometry><Polygon><outerBoundaryIs><LinearRing><coordinates>-76.4532287979837,3.70398561291693 -76.4527103374419,3.70488361291693 -76.4516734163585,3.70488361291693 -76.4511549558167,3.70398561291693 -76.4516734163585,3.70308761291693 -76.4527103374419,3.70308761291693 -76.4532287979837,3.70398561291693</coordinates></LinearRing></outerBoundaryIs></Polygon></MultiGeometry>
  </Placemark>
  <Placemark>
	<Style><LineStyle><color>ff0000ff</color></LineStyle><PolyStyle><fill>0</fill></PolyStyle></Style>
	<ExtendedData><SchemaData schemaUrl="#nmero">
		<SimpleData name="id">772469</SimpleData>
		<SimpleData name="left">-76.448562653108041</SimpleData>
		<SimpleData name="top">3.703985612916932</SimpleData>
		<SimpleData name="right">-76.446488810941133</SimpleData>
		<SimpleData name="bottom">3.702189612916932</SimpleData>
		<SimpleData name="row_index">748</SimpleData>
		<SimpleData name="col_index">708</SimpleData>
		<SimpleData name="NUMPOINTS">0.000000000000000</SimpleData>
	</SchemaData></ExtendedData>
      <MultiGeometry><Polygon><outerBoundaryIs><LinearRing><coordinates>-76.4485626531081,3.70308761291693 -76.4480441925663,3.70398561291693 -76.4470072714829,3.70398561291693 -76.4464888109411,3.70308761291693 -76.4470072714829,3.70218961291693 -76.4480441925663,3.70218961291693 -76.4485626531081,3.70308761291693</coordinates></LinearRing></outerBoundaryIs></Polygon></MultiGeometry>
  </Placemark>
  <Placemark>
	<Style><LineStyle><color>ff0000ff</color></LineStyle><PolyStyle><fill>0</fill></PolyStyle></Style>
	<ExtendedData><SchemaData schemaUrl="#nmero">
		<SimpleData name="id">772472</SimpleData>
		<SimpleData name="left">-76.448562653108041</SimpleData>
		<SimpleData name="top">3.698597612916932</SimpleData>
		<SimpleData name="right">-76.446488810941133</SimpleData>
		<SimpleData name="bottom">3.696801612916932</SimpleData>
		<SimpleData name="row_index">751</SimpleData>
		<SimpleData name="col_index">708</SimpleData>
		<SimpleData name="NUMPOINTS">0.000000000000000</SimpleData>
	</SchemaData></ExtendedData>
      <MultiGeometry><Polygon><outerBoundaryIs><LinearRing><coordinates>-76.4485626531081,3.69769961291693 -76.4480441925663,3.69859761291693 -76.4470072714829,3.69859761291693 -76.4464888109411,3.69769961291693 -76.4470072714829,3.69680161291693 -76.4480441925663,3.69680161291693 -76.4485626531081,3.69769961291693</coordinates></LinearRing></outerBoundaryIs></Polygon></MultiGeometry>
  </Placemark>
  <Placemark>
	<Style><LineStyle><color>ff0000ff</color></LineStyle><PolyStyle><fill>0</fill></PolyStyle></Style>
	<ExtendedData><SchemaData schemaUrl="#nmero">
		<SimpleData name="id">772471</SimpleData>
		<SimpleData name="left">-76.448562653108041</SimpleData>
		<SimpleData name="top">3.700393612916932</SimpleData>
		<SimpleData name="right">-76.446488810941133</SimpleData>
		<SimpleData name="bottom">3.698597612916932</SimpleData>
		<SimpleData name="row_index">750</SimpleData>
		<SimpleData name="col_index">708</SimpleData>
		<SimpleData name="NUMPOINTS">0.000000000000000</SimpleData>
	</SchemaData></ExtendedData>
      <MultiGeometry><Polygon><outerBoundaryIs><LinearRing><coordinates>-76.4485626531081,3.69949561291693 -76.4480441925663,3.70039361291693 -76.4470072714829,3.70039361291693 -76.4464888109411,3.69949561291693 -76.4470072714829,3.69859761291693 -76.4480441925663,3.69859761291693 -76.4485626531081,3.69949561291693</coordinates></LinearRing></outerBoundaryIs></Polygon></MultiGeometry>
  </Placemark>
</Folder>
</Document></kml>
